[{"OBJECT_NAME":"STARLINK-35058","OBJECT_ID":"2025-191R","EPOCH":"2026-03-09T14:13:33.110112","MEAN_MOTION":15.05670963,"ECCENTRICITY":0.0001639,"INCLINATION":97.603,"RA_OF_ASC_NODE":301.4104,"ARG_OF_PERICENTER":72.1467,"MEAN_ANOMALY":287.9938,"EPHEMERIS_TYPE":0,"CLASSIFICATION_TYPE":"U","NORAD_CAT_ID":65394,"ELEMENT_SET_NO":999,"REV_AT_EPOCH":3025,"BSTAR":0.00052604,"MEAN_MOTION_DOT":7.542e-5,"MEAN_MOTION_DDOT":0},{"OBJECT_NAME":"SL-16 DEB","OBJECT_ID":"1992-093CH","EPOCH":"2026-03-09T20:51:36.974880","MEAN_MOTION":14.88689084,"ECCENTRICITY":0.0074931,"INCLINATION":70.8861,"RA_OF_ASC_NODE":315.1013,"ARG_OF_PERICENTER":150.6914,"MEAN_ANOMALY":290.361,"EPHEMERIS_TYPE":0,"CLASSIFICATION_TYPE":"U","NORAD_CAT_ID":22392,"ELEMENT_SET_NO":999,"REV_AT_EPOCH":74900,"BSTAR":0.00054238016,"MEAN_MOTION_DOT":5.266e-5,"MEAN_MOTION_DDOT":0}]
